$$SOE
2460721.500000000, A.D. 2025-Feb-15 00:00:00.0000, 2.968859864150583E+08, 3.116864381508144E+08, -2.720260950058468E+07,
2460728.500000000, A.D. 2025-Feb-22 00:00:00.0000, 2.934675205182378E+08, 3.206733313952510E+08, -2.764184943388720E+07,
2460735.500000000, A.D. 2025-Mar-01 00:00:00.0000, 2.898765491087734E+08, 3.294719446990201E+08, -2.806484101759616E+07,
2460742.500000000, A.D. 2025-Mar-08 00:00:00.0000, 2.861199797014242E+08, 3.380825641263736E+08, -2.847179999604157E+07,
2460749.500000000, A.D. 2025-Mar-15 00:00:00.0000, 2.822044247154077E+08, 3.465055552257002E+08, -2.886293823020999E+07,
2460756.500000000, A.D. 2025-Mar-22 00:00:00.0000, 2.781362164937529E+08, 3.547413522276351E+08, -2.923846327962726E+07,
2460763.500000000, A.D. 2025-Mar-29 00:00:00.0000, 2.739214226271090E+08, 3.627904462584377E+08, -2.959857833821167E+07,
2460770.500000000, A.D. 2025-Apr-05 00:00:00.0000, 2.695658619742031E+08, 3.706533755593981E+08, -2.994348229115270E+07,
2460777.500000000, A.D. 2025-Apr-12 00:00:00.0000, 2.650751195147038E+08, 3.783307176858828E+08, -3.027336970186536E+07,
2460784.500000000, A.D. 2025-Apr-19 00:00:00.0000, 2.604545599065935E+08, 3.858230826913827E+08, -3.058843077896778E+07,
2460791.500000000, A.D. 2025-Apr-26 00:00:00.0000, 2.557093400767131E+08, 3.931311069941474E+08, -3.088885136069880E+07,
2460798.500000000, A.D. 2025-May-03 00:00:00.0000, 2.508444210122464E+08, 4.002554478579646E+08, -3.117481292214705E+07,
2460805.500000000, A.D. 2025-May-10 00:00:00.0000, 2.458645788327236E+08, 4.071967784184260E+08, -3.144649260420130E+07,
2460812.500000000, A.D. 2025-May-17 00:00:00.0000, 2.407744152271855E+08, 4.139557831454148E+08, -3.170406326834443E+07,
2460819.500000000, A.D. 2025-May-24 00:00:00.0000, 2.355783674754010E+08, 4.205331536272566E+08, -3.194769359545512E+07,
2460826.500000000, A.D. 2025-May-31 00:00:00.0000, 2.302807185133815E+08, 4.269295849347016E+08, -3.217754823966806E+07,
2460833.500000000, A.D. 2025-Jun-07 00:00:00.0000, 2.248856066825214E+08, 4.331457737221321E+08, -3.239378790052222E+07,
2460840.500000000, A.D. 2025-Jun-14 00:00:00.0000, 2.193970328340753E+08, 4.391824173553605E+08, -3.259656914934535E+07,
2460847.500000000, A.D. 2025-Jun-21 00:00:00.0000, 2.138188660382771E+08, 4.450402107579451E+08, -3.278604438724503E+07,
2460854.500000000, A.D. 2025-Jun-28 00:00:00.0000, 2.081548510593562E+08, 4.507198427101715E+08, -3.296236207664460E+07,
2460861.500000000, A.D. 2025-Jul-05 00:00:00.0000, 2.024086161107492E+08, 4.562219937275615E+08, -3.312566693025368E+07,
2460868.500000000, A.D. 2025-Jul-12 00:00:00.0000, 1.965836797269468E+08, 4.615473346867995E+08, -3.327610001311150E+07,
2460875.500000000, A.D. 2025-Jul-19 00:00:00.0000, 1.906834569671469E+08, 4.666965256010258E+08, -3.341379882132381E+07,
2460882.500000000, A.D. 2025-Jul-26 00:00:00.0000, 1.847112651848376E+08, 4.716702144677671E+08, -3.353889736077049E+07,
2460889.500000000, A.D. 2025-Aug-02 00:00:00.0000, 1.786703294514262E+08, 4.764690361932136E+08, -3.365152622949928E+07,
2460896.500000000, A.D. 2025-Aug-09 00:00:00.0000, 1.725637876786621E+08, 4.810936115621632E+08, -3.375181270667857E+07,
2460903.500000000, A.D. 2025-Aug-16 00:00:00.0000, 1.663946955367631E+08, 4.855445461758790E+08, -3.383988085987321E+07,
2460910.500000000, A.D. 2025-Aug-23 00:00:00.0000, 1.601660314794288E+08, 4.898224293611130E+08, -3.391585169565684E+07,
2460917.500000000, A.D. 2025-Aug-30 00:00:00.0000, 1.538807022219480E+08, 4.939278337523433E+08, -3.397984332492867E+07,
2460924.500000000, A.D. 2025-Sep-06 00:00:00.0000, 1.475415472703169E+08, 4.978613165359242E+08, -3.403197093062618E+07,
2460931.500000000, A.D. 2025-Sep-13 00:00:00.0000, 1.411513408439848E+08, 5.016234198619318E+08, -3.407234658669916E+07,
2460938.500000000, A.D. 2025-Sep-20 00:00:00.0000, 1.347127944770462E+08, 5.052146687721113E+08, -3.410107936239013E+07,
2460945.500000000, A.D. 2025-Sep-27 00:00:00.0000, 1.282285613697827E+08, 5.086355697510846E+08, -3.411827555471706E+07,
2460952.500000000, A.D. 2025-Oct-04 00:00:00.0000, 1.217012404871334E+08, 5.118866104343948E+08, -3.412403882013476E+07,
2460959.500000000, A.D. 2025-Oct-11 00:00:00.0000, 1.151333800423834E+08, 5.149682595247085E+08, -3.411847024808428E+07,
2460966.500000000, A.D. 2025-Oct-18 00:00:00.0000, 1.085274806609044E+08, 5.178809666367581E+08, -3.410166842486641E+07,
2460973.500000000, A.D. 2025-Oct-25 00:00:00.0000, 1.018859983738837E+08, 5.206251620774509E+08, -3.407372949979350E+07,
2460980.500000000, A.D. 2025-Nov-01 00:00:00.0000, 9.521134749108616E+07, 5.232012565725046E+08, -3.403474725607678E+07,
2460987.500000000, A.D. 2025-Nov-08 00:00:00.0000, 8.850590339611058E+07, 5.256096409045741E+08, -3.398481319233885E+07,
2460994.500000000, A.D. 2025-Nov-15 00:00:00.0000, 8.177200542032894E+07, 5.278506854012165E+08, -3.392401663330129E+07,
2461001.500000000, A.D. 2025-Nov-22 00:00:00.0000, 7.501196020606913E+07, 5.299247394903084E+08, -3.385244488885248E+07,
2461008.500000000, A.D. 2025-Nov-29 00:00:00.0000, 6.822804541368005E+07, 5.318321324560386E+08, -3.377018335504866E+07,
2461015.500000000, A.D. 2025-Dec-06 00:00:00.0000, 6.142251150304312E+07, 5.335731752568183E+08, -3.367731535954902E+07,
2461022.500000000, A.D. 2025-Dec-13 00:00:00.0000, 5.459758202960310E+07, 5.351481600310965E+08, -3.357392206659222E+07,
2461029.500000000, A.D. 2025-Dec-20 00:00:00.0000, 4.775545595348500E+07, 5.365573583130303E+08, -3.346008267840239E+07,
2461036.500000000, A.D. 2025-Dec-27 00:00:00.0000, 4.089831089447629E+07, 5.378010205489779E+08, -3.333587462311530E+07,
2461043.500000000, A.D. 2026-Jan-03 00:00:00.0000, 3.402830587984033E+07, 5.388793762978050E+08, -3.320137364578187E+07,
2461050.500000000, A.D. 2026-Jan-10 00:00:00.0000, 2.714758370005945E+07, 5.397926344351718E+08, -3.305665386799195E+07,
2461057.500000000, A.D. 2026-Jan-17 00:00:00.0000, 2.025827311025884E+07, 5.405409832701855E+08, -3.290178784497583E+07,
2461064.500000000, A.D. 2026-Jan-24 00:00:00.0000, 1.336249096051545E+07, 5.411245905975008E+08, -3.273684662554064E+07,
2461071.500000000, A.D. 2026-Jan-31 00:00:00.0000, 6.462344283808806E+06, 5.415436036780472E+08, -3.256189981765592E+07,
2461078.500000000, A.D. 2026-Feb-07 00:00:00.0000, -4.400675916089449E+05, 5.417981490916361E+08, -3.237701567004701E+07,
2461085.500000000, A.D. 2026-Feb-14 00:00:00.0000, -7.342650647263971E+06, 5.418883324467459E+08, -3.218226119427767E+07,
2461092.500000000, A.D. 2026-Feb-21 00:00:00.0000, -1.424331310445683E+07, 5.418142385253433E+08, -3.197770231576654E+07,
2461099.500000000, A.D. 2026-Feb-28 00:00:00.0000, -2.113996275884405E+07, 5.415759330172582E+08, -3.176340386013639E+07,
2461106.500000000, A.D. 2026-Mar-07 00:00:00.0000, -2.803050677254041E+07, 5.411734638938222E+08, -3.153942934547424E+07,
2461113.500000000, A.D. 2026-Mar-14 00:00:00.0000, -3.491285114383084E+07, 5.406068600868802E+08, -3.130584102549812E+07,
2461120.500000000, A.D. 2026-Mar-21 00:00:00.0000, -4.178489806779602E+07, 5.398761303724678E+08, -3.106270011046100E+07,
2461127.500000000, A.D. 2026-Mar-28 00:00:00.0000, -4.864454319199029E+07, 5.389812634892638E+08, -3.081006689768535E+07,
2461134.500000000, A.D. 2026-Apr-04 00:00:00.0000, -5.548967336558859E+07, 5.379222285264883E+08, -3.054800083529752E+07,
2461141.500000000, A.D. 2026-Apr-11 00:00:00.0000, -6.231816460297878E+07, 5.366989752216633E+08, -3.027656057367218E+07,
2461148.500000000, A.D. 2026-Apr-18 00:00:00.0000, -6.912788009711161E+07, 5.353114341620398E+08, -2.999580401971850E+07,
2461155.500000000, A.D. 2026-Apr-25 00:00:00.0000, -7.591666823107095E+07, 5.337595169046869E+08, -2.970578839694950E+07,
2461162.500000000, A.D. 2026-May-02 00:00:00.0000, -8.268236055147983E+07, 5.320431159856453E+08, -2.940657031646308E+07,
2461169.500000000, A.D. 2026-May-09 00:00:00.0000, -8.942276957380864E+07, 5.301621047520416E+08, -2.909820587556756E+07,
2461176.500000000, A.D. 2026-May-16 00:00:00.0000, -9.613568603676245E+07, 5.281163371563531E+08, -2.878075080741015E+07,
2461183.500000000, A.D. 2026-May-23 00:00:00.0000, -1.028188755491580E+08, 5.259056485374689E+08, -2.845426060305697E+07,
2461190.500000000, A.D. 2026-May-30 00:00:00.0000, -1.094700767019474E+08, 5.235298577114782E+08, -2.811879038979360E+07,
2461197.500000000, A.D. 2026-Jun-06 00:00:00.0000, -1.160870009556917E+08, 5.209887671006486E+08, -2.777439480445108E+07,
2461204.500000000, A.D. 2026-Jun-13 00:00:00.0000, -1.226673306315613E+08, 5.182821611011467E+08, -2.742112818202785E+07,
2461211.500000000, A.D. 2026-Jun-20 00:00:00.0000, -1.292087155007733E+08, 5.154098056194117E+08, -2.705904477525657E+07,
2461218.500000000, A.D. 2026-Jun-27 00:00:00.0000, -1.357087696632054E+08, 5.123714484406942E+08, -2.668819887787226E+07,
2461225.500000000, A.D. 2026-Jul-04 00:00:00.0000, -1.421650687075912E+08, 5.091668196573869E+08, -2.630864491549250E+07,
2461232.500000000, A.D. 2026-Jul-11 00:00:00.0000, -1.485751468917811E+08, 5.057956320281379E+08, -2.592043753879407E+07,
2461239.500000000, A.D. 2026-Jul-18 00:00:00.0000, -1.549364942424806E+08, 5.022575812970214E+08, -2.552363172606286E+07,
2461246.500000000, A.D. 2026-Jul-25 00:00:00.0000, -1.612465535417167E+08, 4.985523464795560E+08, -2.511828289783311E+07,
2461253.500000000, A.D. 2026-Aug-01 00:00:00.0000, -1.675027171431330E+08, 4.946795900720190E+08, -2.470444705266544E+07,
2461260.500000000, A.D. 2026-Aug-08 00:00:00.0000, -1.737023233939563E+08, 4.906389581532513E+08, -2.428218094739887E+07,
2461267.500000000, A.D. 2026-Aug-15 00:00:00.0000, -1.798426522379609E+08, 4.864300808351091E+08, -2.385154232385010E+07,
2461274.500000000, A.D. 2026-Aug-22 00:00:00.0000, -1.859209207504460E+08, 4.820525742899321E+08, -2.341259001318327E+07,
2461281.500000000, A.D. 2026-Aug-29 00:00:00.0000, -1.919342808827358E+08, 4.775060429903470E+08, -2.296538382110059E+07,
2461288.500000000, A.D. 2026-Sep-05 00:00:00.0000, -1.978798172696375E+08, 4.727900792999923E+08, -2.250998462453669E+07,
$$EOE